start=new Date('2023-03-15T00:00:00.000Z').valueOf();
sats=[{"SITE":"AFETR","TLE_LINE2":"2 45408  53.0542  24.7302 0000917  89.1989 270.9105 15.06361678164997","RCS_SIZE":"LARGE","OBJECT_NAME":"STARLINK-1278","MEAN_ELEMENT_THEORY":"SGP4","GP_ID":"228071967","COUNTRY_CODE":"US","ELEMENT_SET_NO":"999","ARG_OF_PERICENTER":"89.1989","LAUNCH_DATE":"2020-03-18","SEMIMAJOR_AXIS":"6925.466","MEAN_MOTION_DOT":"0.00040805","CENTER_NAME":"EARTH","RA_OF_ASC_NODE":"24.7302","REV_AT_EPOCH":"16499","EPHEMERIS_TYPE":"0","MEAN_MOTION":"15.06361678","OBJECT_ID":"2020-019BA","TIME_SYSTEM":"UTC","BSTAR":"0.00274530000000","PERIOD":"95.595","PERIAPSIS":"546.696","FILE":"3860373","INCLINATION":"53.0542","MEAN_ANOMALY":"270.9105","APOAPSIS":"547.966","REF_FRAME":"TEME","EPOCH":"2023-03-14T14:16:53.394816","ECCENTRICITY":"0.00009170","OBJECT_TYPE":"PAYLOAD","NORAD_CAT_ID":"45408","MEAN_MOTION_DDOT":"0.0000000000000","TLE_LINE1":"1 45408U 20019BA  23073.59506244  .00040805  00000-0  27453-2 0  9993","CLASSIFICATION_TYPE":"U","DECAY_DATE":null},{"MEAN_MOTION":"15.06400444","OBJECT_ID":"2020-019BB","TIME_SYSTEM":"UTC","BSTAR":"0.00152310000000","REV_AT_EPOCH":"16533","EPHEMERIS_TYPE":"0","MEAN_MOTION_DOT":"0.00022478","CENTER_NAME":"EARTH","RA_OF_ASC_NODE":"357.1321","SEMIMAJOR_AXIS":"6925.347","LAUNCH_DATE":"2020-03-18","TLE_LINE2":"2 45409  53.0551 357.1321 0001247  97.9767 262.1363 15.06400444165333","RCS_SIZE":"LARGE","OBJECT_NAME":"STARLINK-1282","GP_ID":"228072217","ARG_OF_PERICENTER":"97.9767","COUNTRY_CODE":"US","ELEMENT_SET_NO":"999","MEAN_ELEMENT_THEORY":"SGP4","SITE":"AFETR","TLE_LINE1":"1 45409U 20019BB  23073.05967306  .00022478  00000-0  15231-2 0  9992","CLASSIFICATION_TYPE":"U","DECAY_DATE":null,"OBJECT_TYPE":"PAYLOAD","ECCENTRICITY":"0.00012470","NORAD_CAT_ID":"45409","MEAN_MOTION_DDOT":"0.0000000000000","REF_FRAME":"TEME","EPOCH":"2023-03-14T01:25:55.752384","APOAPSIS":"548.076","PERIAPSIS":"546.349","MEAN_ANOMALY":"262.1363","FILE":"3860373","INCLINATION":"53.0551","PERIOD":"95.592"},{"MEAN_MOTION_DDOT":"0.0000000000000","OBJECT_TYPE":"PAYLOAD","ECCENTRICITY":"0.00009630","NORAD_CAT_ID":"45411","DECAY_DATE":null,"TLE_LINE1":"1 45411U 20019BD  23073.47253392  .00033018  00000-0  22249-2 0  9993","CLASSIFICATION_TYPE":"U","FILE":"3860373","INCLINATION":"53.0555","MEAN_ANOMALY":"270.2062","PERIAPSIS":"546.534","PERIOD":"95.592","REF_FRAME":"TEME","EPOCH":"2023-03-14T11:20:26.930688","APOAPSIS":"547.868","REV_AT_EPOCH":"16541","EPHEMERIS_TYPE":"0","TIME_SYSTEM":"UTC","OBJECT_ID":"2020-019BD","BSTAR":"0.00222490000000","MEAN_MOTION":"15.06403994","OBJECT_NAME":"STARLINK-1293","ARG_OF_PERICENTER":"89.9037","GP_ID":"228073466","COUNTRY_CODE":"US","ELEMENT_SET_NO":"999","MEAN_ELEMENT_THEORY":"SGP4","TLE_LINE2":"2 45411  53.0555 355.2883 0000963  89.9037 270.2062 15.06403994165415","RCS_SIZE":"LARGE","SITE":"AFETR","RA_OF_ASC_NODE":"355.2883","CENTER_NAME":"EARTH","MEAN_MOTION_DOT":"0.00033018","SEMIMAJOR_AXIS":"6925.336","LAUNCH_DATE":"2020-03-18"},{"BSTAR":"0.00305180000000","OBJECT_ID":"2020-019BE","TIME_SYSTEM":"UTC","MEAN_MOTION":"15.06416006","EPHEMERIS_TYPE":"0","REV_AT_EPOCH":"16539","RA_OF_ASC_NODE":"355.1351","MEAN_MOTION_DOT":"0.00045489","CENTER_NAME":"EARTH","LAUNCH_DATE":"2020-03-18","SEMIMAJOR_AXIS":"6925.300","COUNTRY_CODE":"US","GP_ID":"228073217","MEAN_ELEMENT_THEORY":"SGP4","ELEMENT_SET_NO":"999","ARG_OF_PERICENTER":"73.0023","OBJECT_NAME":"STARLINK-1296","RCS_SIZE":"LARGE","TLE_LINE2":"2 45412  53.0550 355.1351 0001256  73.0023 287.1103 15.06416006165393","SITE":"AFETR","DECAY_DATE":null,"CLASSIFICATION_TYPE":"U","TLE_LINE1":"1 45412U 20019BE  23073.50571534  .00045489  00000-0  30518-2 0  9992","MEAN_MOTION_DDOT":"0.0000000000000","NORAD_CAT_ID":"45412","OBJECT_TYPE":"PAYLOAD","ECCENTRICITY":"0.00012560","REF_FRAME":"TEME","EPOCH":"2023-03-14T12:08:13.805376","APOAPSIS":"548.034","FILE":"3860373","INCLINATION":"53.0550","MEAN_ANOMALY":"287.1103","PERIAPSIS":"546.295","PERIOD":"95.591"},{"CLASSIFICATION_TYPE":"U","TLE_LINE1":"1 45413U 20019BF  23073.80054387  .00006244  00000-0  43757-3 0  9994","DECAY_DATE":null,"NORAD_CAT_ID":"45413","OBJECT_TYPE":"PAYLOAD","ECCENTRICITY":"0.00007740","MEAN_MOTION_DDOT":"0.0000000000000","APOAPSIS":"547.716","EPOCH":"2023-03-14T19:12:46.990368","REF_FRAME":"TEME","PERIOD":"95.591","PERIAPSIS":"546.644","FILE":"3860643","MEAN_ANOMALY":"266.6687","INCLINATION":"53.0582","MEAN_MOTION":"15.06410970","BSTAR":"0.00043757000000","OBJECT_ID":"2020-019BF","TIME_SYSTEM":"UTC","EPHEMERIS_TYPE":"0","REV_AT_EPOCH":"16553","LAUNCH_DATE":"2020-03-18","SEMIMAJOR_AXIS":"6925.315","MEAN_MOTION_DOT":"0.00006244","CENTER_NAME":"EARTH","RA_OF_ASC_NODE":"353.8078","SITE":"AFETR","TLE_LINE2":"2 45413  53.0582 353.8078 0000774  93.4390 266.6687 15.06410970165536","RCS_SIZE":"LARGE","GP_ID":"228104411","COUNTRY_CODE":"US","ELEMENT_SET_NO":"999","MEAN_ELEMENT_THEORY":"SGP4","ARG_OF_PERICENTER":"93.4390","OBJECT_NAME":"STARLINK-1298"},{"OBJECT_TYPE":"PAYLOAD","ECCENTRICITY":"0.00014700","NORAD_CAT_ID":"45414","MEAN_MOTION_DDOT":"0.0000000000000","TLE_LINE1":"1 45414U 20019BG  23073.18870001 -.00003276  00000-0 -20131-3 0  9990","CLASSIFICATION_TYPE":"U","DECAY_DATE":null,"PERIOD":"95.594","PERIAPSIS":"546.305","FILE":"3860373","INCLINATION":"53.0546","MEAN_ANOMALY":"245.5058","APOAPSIS":"548.341","EPOCH":"2023-03-14T04:31:43.680864","REF_FRAME":"TEME","REV_AT_EPOCH":"16533","EPHEMERIS_TYPE":"0","MEAN_MOTION":"15.06364219","OBJECT_ID":"2020-019BG","TIME_SYSTEM":"UTC","BSTAR":"-0.00020131000000","SITE":"AFETR","TLE_LINE2":"2 45414  53.0546 356.5505 0001470 114.6085 245.5058 15.06364219165333","RCS_SIZE":"LARGE","OBJECT_NAME":"STARLINK-1309","GP_ID":"228072716","COUNTRY_CODE":"US","MEAN_ELEMENT_THEORY":"SGP4","ELEMENT_SET_NO":"999","ARG_OF_PERICENTER":"114.6085","LAUNCH_DATE":"2020-03-18","SEMIMAJOR_AXIS":"6925.458","CENTER_NAME":"EARTH","MEAN_MOTION_DOT":"-0.00003276","RA_OF_ASC_NODE":"356.5505"},{"MEAN_MOTION_DOT":"0.00013350","CENTER_NAME":"EARTH","RA_OF_ASC_NODE":"353.7655","LAUNCH_DATE":"2020-03-18","SEMIMAJOR_AXIS":"6925.421","TLE_LINE2":"2 45415  53.0533 353.7655 0000923 123.7641 236.3436 15.06376408165461","RCS_SIZE":"LARGE","COUNTRY_CODE":"US","GP_ID":"228105401","ELEMENT_SET_NO":"999","ARG_OF_PERICENTER":"123.7641","MEAN_ELEMENT_THEORY":"SGP4","OBJECT_NAME":"STARLINK-1316","SITE":"AFETR","MEAN_MOTION":"15.06376408","BSTAR":"0.00091403000000","OBJECT_ID":"2020-019BH","TIME_SYSTEM":"UTC","EPHEMERIS_TYPE":"0","REV_AT_EPOCH":"16546","REF_FRAME":"TEME","EPOCH":"2023-03-14T19:28:46.150464","APOAPSIS":"547.925","PERIAPSIS":"546.647","FILE":"3860643","MEAN_ANOMALY":"236.3436","INCLINATION":"53.0533","PERIOD":"95.594","CLASSIFICATION_TYPE":"U","TLE_LINE1":"1 45415U 20019BH  23073.81164526  .00013350  00000-0  91403-3 0  9991","DECAY_DATE":null,"NORAD_CAT_ID":"45415","OBJECT_TYPE":"PAYLOAD","ECCENTRICITY":"0.00009230","MEAN_MOTION_DDOT":"0.0000000000000"},{"SITE":"AFETR","OBJECT_NAME":"STARLINK-1318","GP_ID":"228104660","COUNTRY_CODE":"US","ARG_OF_PERICENTER":"118.2603","ELEMENT_SET_NO":"999","MEAN_ELEMENT_THEORY":"SGP4","RCS_SIZE":"LARGE","TLE_LINE2":"2 45416  53.0556 353.3133 0001013 118.2603 241.8489 15.06453419165469","SEMIMAJOR_AXIS":"6925.185","LAUNCH_DATE":"2020-03-18","RA_OF_ASC_NODE":"353.3133","CENTER_NAME":"EARTH","MEAN_MOTION_DOT":"0.00033918","REV_AT_EPOCH":"16546","EPHEMERIS_TYPE":"0","TIME_SYSTEM":"UTC","OBJECT_ID":"2020-019BJ","BSTAR":"0.00228170000000","MEAN_MOTION":"15.06453419","PERIOD":"95.589","MEAN_ANOMALY":"241.8489","FILE":"3860643","INCLINATION":"53.0556","PERIAPSIS":"546.348","APOAPSIS":"547.751","EPOCH":"2023-03-14T21:51:59.413248","REF_FRAME":"TEME","MEAN_MOTION_DDOT":"0.0000000000000","OBJECT_TYPE":"PAYLOAD","ECCENTRICITY":"0.00010130","NORAD_CAT_ID":"45416","DECAY_DATE":null,"TLE_LINE1":"1 45416U 20019BJ  23073.91110432  .00033918  00000-0  22817-2 0  9994","CLASSIFICATION_TYPE":"U"},{"REV_AT_EPOCH":"16526","EPHEMERIS_TYPE":"0","MEAN_MOTION":"15.06346877","OBJECT_ID":"2020-019BK","TIME_SYSTEM":"UTC","BSTAR":"0.00255020000000","SITE":"AFETR","RCS_SIZE":"LARGE","TLE_LINE2":"2 45417  53.0548  24.7840 0001299 105.2962 254.8171 15.06346877165264","OBJECT_NAME":"STARLINK-1286","COUNTRY_CODE":"US","GP_ID":"228071968","ELEMENT_SET_NO":"999","ARG_OF_PERICENTER":"105.2962","MEAN_ELEMENT_THEORY":"SGP4","SEMIMAJOR_AXIS":"6925.511","LAUNCH_DATE":"2020-03-18","MEAN_MOTION_DOT":"0.00037854","CENTER_NAME":"EARTH","RA_OF_ASC_NODE":"24.7840","OBJECT_TYPE":"PAYLOAD","ECCENTRICITY":"0.00012990","NORAD_CAT_ID":"45417","MEAN_MOTION_DDOT":"0.0000000000000","TLE_LINE1":"1 45417U 20019BK  23073.58399247  .00037854  00000-0  25502-2 0  9998","CLASSIFICATION_TYPE":"U","DECAY_DATE":null,"PERIOD":"95.596","PERIAPSIS":"546.477","FILE":"3860373","MEAN_ANOMALY":"254.8171","INCLINATION":"53.0548","APOAPSIS":"548.276","REF_FRAME":"TEME","EPOCH":"2023-03-14T14:00:56.949408"},{"ECCENTRICITY":"0.00058320","OBJECT_TYPE":"PAYLOAD","NORAD_CAT_ID":"45418","MEAN_MOTION_DDOT":"0.0000000000000","TLE_LINE1":"1 45418U 20019BL  23073.91434402  .00111487  00000-0  44273-2 0  9990","CLASSIFICATION_TYPE":"U","DECAY_DATE":null,"PERIOD":"94.460","PERIAPSIS":"488.431","MEAN_ANOMALY":"241.3187","FILE":"3860643","INCLINATION":"52.9893","APOAPSIS":"496.445","REF_FRAME":"TEME","EPOCH":"2023-03-14T21:56:39.323328","REV_AT_EPOCH":"16485","EPHEMERIS_TYPE":"0","MEAN_MOTION":"15.24450516","OBJECT_ID":"2020-019BL","TIME_SYSTEM":"UTC","BSTAR":"0.00442730000000","SITE":"AFETR","TLE_LINE2":"2 45418  52.9893  33.3366 0005832 118.8395 241.3187 15.24450516164850","RCS_SIZE":"LARGE","OBJECT_NAME":"STARLINK-1299","MEAN_ELEMENT_THEORY":"SGP4","GP_ID":"228105162","COUNTRY_CODE":"US","ELEMENT_SET_NO":"999","ARG_OF_PERICENTER":"118.8395","LAUNCH_DATE":"2020-03-18","SEMIMAJOR_AXIS":"6870.573","MEAN_MOTION_DOT":"0.00111487","CENTER_NAME":"EARTH","RA_OF_ASC_NODE":"33.3366"}];
